{"type": "FeatureCollection", "features": [{"type": "Feature", "properties": {"zone_id": "6140.05", "name": "W 21 St & 6 Ave", "freq": 116645}, "geometry": {"type": "Polygon", "coordinates": [[[-73.99296672390841, 40.74173969], [-73.99298478499995, 40.741896129799706], [-73.99303841949741, 40.74204781625525], [-73.99312599774375, 40.742190140450454], [-73.99324485871826, 40.74231877793666], [-73.99339139089038, 40.74242982012894], [-73.9935611419542, 40.74251989306647], [-73.99374895410956, 40.742586259928636], [-73.99394912077915, 40.74262690419191], [-73.99415556, 40.742640590900905], [-73.99436199922084, 40.74262690419191], [-73.99456216589043, 40.742586259928636], [-73.99474997804579, 40.74251989306647], [-73.99491972910961, 40.74242982012894], [-73.99506626128174, 40.74231877793666], [-73.99518512225625, 40.742190140450454], [-73.99527270050258, 40.74204781625525], [-73.99532633500004, 40.741896129799706], [-73.99534439609158, 40.74173969], [-73.99532633500004, 40.7415832502003], [-73.99527270050258, 40.741431563744754], [-73.99518512225625, 40.74128923954955], [-73.99506626128174, 40.741160602063346], [-73.99491972910961, 40.741049559871065], [-73.99474997804579, 40.740959486933534], [-73.99456216589043, 40.74089312007137], [-73.99436199922084, 40.7408524758081], [-73.99415556, 40.7408387890991], [-73.99394912077915, 40.7408524758081], [-73.99374895410956, 40.74089312007137], [-73.9935611419542, 40.740959486933534], [-73.99339139089038, 40.741049559871065], [-73.99324485871826, 40.741160602063346], [-73.99312599774375, 40.74128923954955], [-73.99303841949741, 40.741431563744754], [-73.99298478499995, 40.7415832502003], [-73.99296672390841, 40.74173969]]]}}, {"type": "Feature", "properties": {"zone_id": "6233.04", "name": "Pier 61 at Chelsea Piers", "freq": 106910}, "geometry": {"type": "Polygon", "coordinates": [[[-74.00702116390842, 40.746872], [-74.00703922499996, 40.747028439799706], [-74.00709285949742, 40.74718012625525], [-74.00718043774376, 40.747322450450454], [-74.00729929871827, 40.74745108793666], [-74.00744583089039, 40.74756213012894], [-74.00761558195421, 40.74765220306647], [-74.00780339410957, 40.74771856992864], [-74.00800356077916, 40.74775921419191], [-74.00821, 40.747772900900905], [-74.00841643922085, 40.74775921419191], [-74.00861660589044, 40.74771856992864], [-74.0088044180458, 40.74765220306647], [-74.00897416910962, 40.74756213012894], [-74.00912070128174, 40.74745108793666], [-74.00923956225625, 40.747322450450454], [-74.00932714050259, 40.74718012625525], [-74.00938077500005, 40.747028439799706], [-74.00939883609159, 40.746872], [-74.00938077500005, 40.7467155602003], [-74.00932714050259, 40.746563873744755], [-74.00923956225625, 40.74642154954955], [-74.00912070128174, 40.746292912063346], [-74.00897416910962, 40.746181869871066], [-74.0088044180458, 40.746091796933534], [-74.00861660589044, 40.74602543007137], [-74.00841643922085, 40.7459847858081], [-74.00821, 40.7459710990991], [-74.00800356077916, 40.7459847858081], [-74.00780339410957, 40.74602543007137], [-74.00761558195421, 40.746091796933534], [-74.00744583089039, 40.746181869871066], [-74.00729929871827, 40.746292912063346], [-74.00718043774376, 40.74642154954955], [-74.00709285949742, 40.746563873744755], [-74.00703922499996, 40.7467155602003], [-74.00702116390842, 40.746872]]]}}, {"type": "Feature", "properties": {"zone_id": "5788.13", "name": "Lafayette St & E 8 St", "freq": 98942}, "geometry": {"type": "Polygon", "coordinates": [[[-73.98983743737253, 40.73020662385873], [-73.98985549846407, 40.73036306365843], [-73.98990913296153, 40.730514750113976], [-73.98999671120787, 40.73065707430918], [-73.99011557218238, 40.730785711795384], [-73.9902621043545, 40.730896753987665], [-73.99043185541832, 40.7309868269252], [-73.99061966757368, 40.73105319378736], [-73.99081983424327, 40.73109383805063], [-73.99102627346412, 40.73110752475963], [-73.99123271268496, 40.73109383805063], [-73.99143287935455, 40.73105319378736], [-73.99162069150991, 40.7309868269252], [-73.99179044257373, 40.730896753987665], [-73.99193697474585, 40.730785711795384], [-73.99205583572036, 40.73065707430918], [-73.9921434139667, 40.730514750113976], [-73.99219704846416, 40.73036306365843], [-73.9922151095557, 40.73020662385873], [-73.99219704846416, 40.730050184059024], [-73.9921434139667, 40.72989849760348], [-73.99205583572036, 40.729756173408276], [-73.99193697474585, 40.72962753592207], [-73.99179044257373, 40.72951649372979], [-73.99162069150991, 40.72942642079226], [-73.99143287935455, 40.729360053930094], [-73.99123271268496, 40.72931940966682], [-73.99102627346412, 40.729305722957825], [-73.99081983424327, 40.72931940966682], [-73.99061966757368, 40.729360053930094], [-73.99043185541832, 40.72942642079226], [-73.9902621043545, 40.72951649372979], [-73.99011557218238, 40.72962753592207], [-73.98999671120787, 40.729756173408276], [-73.98990913296153, 40.72989849760348], [-73.98985549846407, 40.730050184059024], [-73.98983743737253, 40.73020662385873]]]}}, {"type": "Feature", "properties": {"zone_id": "5329.03", "name": "West St & Chambers St", "freq": 89710}, "geometry": {"type": "Polygon", "coordinates": [[[-74.01203185390841, 40.71754834], [-74.01204991499995, 40.7177047797997], [-74.01210354949741, 40.71785646625525], [-74.01219112774375, 40.71799879045045], [-74.01230998871826, 40.71812742793666], [-74.01245652089038, 40.71823847012894], [-74.0126262719542, 40.71832854306647], [-74.01281408410956, 40.718394909928634], [-74.01301425077915, 40.718435554191906], [-74.01322069, 40.7184492409009], [-74.01342712922084, 40.718435554191906], [-74.01362729589043, 40.718394909928634], [-74.01381510804579, 40.71832854306647], [-74.01398485910961, 40.71823847012894], [-74.01413139128174, 40.71812742793666], [-74.01425025225625, 40.71799879045045], [-74.01433783050258, 40.71785646625525], [-74.01439146500005, 40.7177047797997], [-74.01440952609158, 40.71754834], [-74.01439146500005, 40.7173919002003], [-74.01433783050258, 40.71724021374475], [-74.01425025225625, 40.71709788954955], [-74.01413139128174, 40.71696925206334], [-74.01398485910961, 40.71685820987106], [-74.01381510804579, 40.71676813693353], [-74.01362729589043, 40.71670177007137], [-74.01342712922084, 40.716661125808095], [-74.01322069, 40.7166474390991], [-74.01301425077915, 40.716661125808095], [-74.01281408410956, 40.71670177007137], [-74.0126262719542, 40.71676813693353], [-74.01245652089038, 40.71685820987106], [-74.01230998871826, 40.71696925206334], [-74.01219112774375, 40.71709788954955], [-74.01210354949741, 40.71724021374475], [-74.01204991499995, 40.7173919002003], [-74.01203185390841, 40.71754834]]]}}, {"type": "Feature", "properties": {"zone_id": "5905.14", "name": "University Pl & E 14 St", "freq": 89368}, "geometry": {"type": "Polygon", "coordinates": [[[-73.99089616390842, 40.734814], [-73.99091422499995, 40.7349704397997], [-73.99096785949742, 40.73512212625525], [-73.99105543774375, 40.73526445045045], [-73.99117429871826, 40.73539308793666], [-73.99132083089039, 40.73550413012894], [-73.99149058195421, 40.73559420306647], [-73.99167839410957, 40.73566056992863], [-73.99187856077916, 40.735701214191906], [-73.992085, 40.7357149009009], [-73.99229143922085, 40.735701214191906], [-73.99249160589044, 40.73566056992863], [-73.9926794180458, 40.73559420306647], [-73.99284916910962, 40.73550413012894], [-73.99299570128174, 40.73539308793666], [-73.99311456225625, 40.73526445045045], [-73.99320214050259, 40.73512212625525], [-73.99325577500005, 40.7349704397997], [-73.99327383609159, 40.734814], [-73.99325577500005, 40.7346575602003], [-73.99320214050259, 40.73450587374475], [-73.99311456225625, 40.73436354954955], [-73.99299570128174, 40.73423491206334], [-73.99284916910962, 40.73412386987106], [-73.9926794180458, 40.73403379693353], [-73.99249160589044, 40.73396743007137], [-73.99229143922085, 40.733926785808094], [-73.992085, 40.7339130990991], [-73.99187856077916, 40.733926785808094], [-73.99167839410957, 40.73396743007137], [-73.99149058195421, 40.73403379693353], [-73.99132083089039, 40.73412386987106], [-73.99117429871826, 40.73423491206334], [-73.99105543774375, 40.73436354954955], [-73.99096785949742, 40.73450587374475], [-73.99091422499995, 40.7346575602003], [-73.99089616390842, 40.734814]]]}}, {"type": "Feature", "properties": {"zone_id": "5905.12", "name": "Broadway & E 14 St", "freq": 89048}, "geometry": {"type": "Polygon", "coordinates": [[[-73.9895526078898, 40.7345456545024], [-73.98957066898134, 40.7347020943021], [-73.9896243034788, 40.734853780757646], [-73.98971188172514, 40.73499610495285], [-73.98983074269965, 40.735124742439055], [-73.98997727487178, 40.735235784631335], [-73.9901470259356, 40.73532585756887], [-73.99033483809096, 40.73539222443103], [-73.99053500476055, 40.7354328686943], [-73.99074144398139, 40.7354465554033], [-73.99094788320224, 40.7354328686943], [-73.99114804987182, 40.73539222443103], [-73.99133586202719, 40.73532585756887], [-73.99150561309101, 40.735235784631335], [-73.99165214526313, 40.735124742439055], [-73.99177100623764, 40.73499610495285], [-73.99185858448398, 40.734853780757646], [-73.99191221898144, 40.7347020943021], [-73.99193028007298, 40.7345456545024], [-73.99191221898144, 40.734389214702695], [-73.99185858448398, 40.73423752824715], [-73.99177100623764, 40.73409520405195], [-73.99165214526313, 40.73396656656574], [-73.99150561309101, 40.73385552437346], [-73.99133586202719, 40.73376545143593], [-73.99114804987182, 40.733699084573765], [-73.99094788320224, 40.73365844031049], [-73.99074144398139, 40.733644753601496], [-73.99053500476055, 40.73365844031049], [-73.99033483809096, 40.733699084573765], [-73.9901470259356, 40.73376545143593], [-73.98997727487178, 40.73385552437346], [-73.98983074269965, 40.73396656656574], [-73.98971188172514, 40.73409520405195], [-73.9896243034788, 40.73423752824715], [-73.98957066898134, 40.734389214702695], [-73.9895526078898, 40.7345456545024]]]}}, {"type": "Feature", "properties": {"zone_id": "5779.11", "name": "Ave A & E 14 St", "freq": 85240}, "geometry": {"type": "Polygon", "coordinates": [[[-73.97928295514285, 40.730310708059676], [-73.97930101623439, 40.73046714785938], [-73.97935465073185, 40.730618834314924], [-73.97944222897819, 40.73076115851013], [-73.9795610899527, 40.73088979599633], [-73.97970762212482, 40.73100083818861], [-73.97987737318864, 40.731090911126145], [-73.980065185344, 40.73115727798831], [-73.98026535201359, 40.73119792225158], [-73.98047179123444, 40.73121160896058], [-73.98067823045528, 40.73119792225158], [-73.98087839712487, 40.73115727798831], [-73.98106620928023, 40.731090911126145], [-73.98123596034405, 40.73100083818861], [-73.98138249251618, 40.73088979599633], [-73.98150135349069, 40.73076115851013], [-73.98158893173702, 40.730618834314924], [-73.98164256623448, 40.73046714785938], [-73.98166062732602, 40.730310708059676], [-73.98164256623448, 40.73015426825997], [-73.98158893173702, 40.73000258180443], [-73.98150135349069, 40.729860257609225], [-73.98138249251618, 40.72973162012302], [-73.98123596034405, 40.72962057793074], [-73.98106620928023, 40.72953050499321], [-73.98087839712487, 40.72946413813104], [-73.98067823045528, 40.72942349386777], [-73.98047179123444, 40.729409807158774], [-73.98026535201359, 40.72942349386777], [-73.980065185344, 40.72946413813104], [-73.97987737318864, 40.72953050499321], [-73.97970762212482, 40.72962057793074], [-73.9795610899527, 40.72973162012302], [-73.97944222897819, 40.729860257609225], [-73.97935465073185, 40.73000258180443], [-73.97930101623439, 40.73015426825997], [-73.97928295514285, 40.730310708059676]]]}}, {"type": "Feature", "properties": {"zone_id": "6173.08", "name": "Broadway & W 25 St", "freq": 82045}, "geometry": {"type": "Polygon", "coordinates": [[[-73.98799745083468, 40.74286877312112], [-73.98801551192622, 40.74302521292082], [-73.98806914642368, 40.743176899376365], [-73.98815672467002, 40.74331922357157], [-73.98827558564453, 40.743447861057774], [-73.98842211781665, 40.743558903250054], [-73.98859186888048, 40.743648976187586], [-73.98877968103584, 40.74371534304975], [-73.98897984770542, 40.74375598731302], [-73.98918628692627, 40.74376967402202], [-73.98939272614712, 40.74375598731302], [-73.9895928928167, 40.74371534304975], [-73.98978070497206, 40.743648976187586], [-73.98995045603588, 40.743558903250054], [-73.99009698820801, 40.743447861057774], [-73.99021584918252, 40.74331922357157], [-73.99030342742886, 40.743176899376365], [-73.99035706192632, 40.74302521292082], [-73.99037512301786, 40.74286877312112], [-73.99035706192632, 40.742712333321414], [-73.99030342742886, 40.74256064686587], [-73.99021584918252, 40.742418322670666], [-73.99009698820801, 40.74228968518446], [-73.98995045603588, 40.74217864299218], [-73.98978070497206, 40.74208857005465], [-73.9895928928167, 40.742022203192484], [-73.98939272614712, 40.74198155892921], [-73.98918628692627, 40.741967872220215], [-73.98897984770542, 40.74198155892921], [-73.98877968103584, 40.742022203192484], [-73.98859186888048, 40.74208857005465], [-73.98842211781665, 40.74217864299218], [-73.98827558564453, 40.74228968518446], [-73.98815672467002, 40.742418322670666], [-73.98806914642368, 40.74256064686587], [-73.98801551192622, 40.742712333321414], [-73.98799745083468, 40.74286877312112]]]}}, {"type": "Feature", "properties": {"zone_id": "6197.08", "name": "E 33 St & 1 Ave", "freq": 79099}, "geometry": {"type": "Polygon", "coordinates": [[[-73.97330900371688, 40.74322681432173], [-73.97332706480842, 40.74338325412143], [-73.97338069930588, 40.74353494057698], [-73.97346827755221, 40.74367726477218], [-73.97358713852672, 40.74380590225839], [-73.97373367069885, 40.74391694445067], [-73.97390342176267, 40.7440070173882], [-73.97409123391803, 40.74407338425036], [-73.97429140058762, 40.744114028513636], [-73.97449783980846, 40.74412771522263], [-73.97470427902931, 40.744114028513636], [-73.9749044456989, 40.74407338425036], [-73.97509225785426, 40.7440070173882], [-73.97526200891808, 40.74391694445067], [-73.9754085410902, 40.74380590225839], [-73.97552740206471, 40.74367726477218], [-73.97561498031105, 40.74353494057698], [-73.97566861480851, 40.74338325412143], [-73.97568667590005, 40.74322681432173], [-73.97566861480851, 40.74307037452203], [-73.97561498031105, 40.74291868806648], [-73.97552740206471, 40.74277636387128], [-73.9754085410902, 40.74264772638507], [-73.97526200891808, 40.74253668419279], [-73.97509225785426, 40.74244661125526], [-73.9749044456989, 40.7423802443931], [-73.97470427902931, 40.742339600129824], [-73.97449783980846, 40.74232591342083], [-73.97429140058762, 40.742339600129824], [-73.97409123391803, 40.7423802443931], [-73.97390342176267, 40.74244661125526], [-73.97373367069885, 40.74253668419279], [-73.97358713852672, 40.74264772638507], [-73.97346827755221, 40.74277636387128], [-73.97338069930588, 40.74291868806648], [-73.97332706480842, 40.74307037452203], [-73.97330900371688, 40.74322681432173]]]}}, {"type": "Feature", "properties": {"zone_id": "5374.01", "name": "Norfolk St & Broome St", "freq": 78091}, "geometry": {"type": "Polygon", "coordinates": [[[-73.98683200390842, 40.7172274], [-73.98685006499996, 40.7173838397997], [-73.98690369949742, 40.71753552625525], [-73.98699127774375, 40.71767785045045], [-73.98711013871826, 40.717806487936656], [-73.98725667089039, 40.717917530128936], [-73.98742642195421, 40.71800760306647], [-73.98761423410957, 40.71807396992863], [-73.98781440077916, 40.718114614191904], [-73.98802084, 40.7181283009009], [-73.98822727922085, 40.718114614191904], [-73.98842744589044, 40.71807396992863], [-73.9886152580458, 40.71800760306647], [-73.98878500910962, 40.717917530128936], [-73.98893154128174, 40.717806487936656], [-73.98905040225625, 40.71767785045045], [-73.98913798050259, 40.71753552625525], [-73.98919161500005, 40.7173838397997], [-73.98920967609159, 40.7172274], [-73.98919161500005, 40.717070960200296], [-73.98913798050259, 40.71691927374475], [-73.98905040225625, 40.71677694954955], [-73.98893154128174, 40.71664831206334], [-73.98878500910962, 40.71653726987106], [-73.9886152580458, 40.71644719693353], [-73.98842744589044, 40.716380830071365], [-73.98822727922085, 40.71634018580809], [-73.98802084, 40.7163264990991], [-73.98781440077916, 40.71634018580809], [-73.98761423410957, 40.716380830071365], [-73.98742642195421, 40.71644719693353], [-73.98725667089039, 40.71653726987106], [-73.98711013871826, 40.71664831206334], [-73.98699127774375, 40.71677694954955], [-73.98690369949742, 40.71691927374475], [-73.98685006499996, 40.717070960200296], [-73.98683200390842, 40.7172274]]]}}, {"type": "Feature", "properties": {"zone_id": "5303.06", "name": "Clinton St & Grand St", "freq": 76604}, "geometry": {"type": "Polygon", "coordinates": [[[-73.98584066390842, 40.71559509], [-73.98585872499996, 40.715751529799704], [-73.98591235949742, 40.71590321625525], [-73.98599993774376, 40.71604554045045], [-73.98611879871827, 40.71617417793666], [-73.98626533089039, 40.71628522012894], [-73.98643508195421, 40.71637529306647], [-73.98662289410957, 40.716441659928634], [-73.98682306077916, 40.716482304191906], [-73.9870295, 40.7164959909009], [-73.98723593922085, 40.716482304191906], [-73.98743610589044, 40.716441659928634], [-73.9876239180458, 40.71637529306647], [-73.98779366910962, 40.71628522012894], [-73.98794020128175, 40.71617417793666], [-73.98805906225626, 40.71604554045045], [-73.98814664050259, 40.71590321625525], [-73.98820027500005, 40.715751529799704], [-73.98821833609159, 40.71559509], [-73.98820027500005, 40.7154386502003], [-73.98814664050259, 40.71528696374475], [-73.98805906225626, 40.71514463954955], [-73.98794020128175, 40.715016002063344], [-73.98779366910962, 40.71490495987106], [-73.9876239180458, 40.71481488693353], [-73.98743610589044, 40.71474852007137], [-73.98723593922085, 40.714707875808095], [-73.9870295, 40.7146941890991], [-73.98682306077916, 40.714707875808095], [-73.98662289410957, 40.71474852007137], [-73.98643508195421, 40.71481488693353], [-73.98626533089039, 40.71490495987106], [-73.98611879871827, 40.715016002063344], [-73.98599993774376, 40.71514463954955], [-73.98591235949742, 40.71528696374475], [-73.98585872499996, 40.7154386502003], [-73.98584066390842, 40.71559509]]]}}, {"type": "Feature", "properties": {"zone_id": "6072.06", "name": "Greenwich Ave & 8 Ave", "freq": 76604}, "geometry": {"type": "Polygon", "coordinates": [[[-74.00144877420841, 40.7390169121], [-74.00146683529995, 40.7391733518997], [-74.00152046979741, 40.73932503835525], [-74.00160804804375, 40.73946736255045], [-74.00172690901826, 40.739596000036656], [-74.00187344119038, 40.739707042228936], [-74.0020431922542, 40.73979711516647], [-74.00223100440957, 40.73986348202863], [-74.00243117107915, 40.739904126291904], [-74.0026376103, 40.7399178130009], [-74.00284404952085, 40.739904126291904], [-74.00304421619043, 40.73986348202863], [-74.00323202834579, 40.73979711516647], [-74.00340177940961, 40.739707042228936], [-74.00354831158174, 40.739596000036656], [-74.00366717255625, 40.73946736255045], [-74.00375475080259, 40.73932503835525], [-74.00380838530005, 40.7391733518997], [-74.00382644639159, 40.7390169121], [-74.00380838530005, 40.738860472300296], [-74.00375475080259, 40.73870878584475], [-74.00366717255625, 40.73856646164955], [-74.00354831158174, 40.73843782416334], [-74.00340177940961, 40.73832678197106], [-74.00323202834579, 40.73823670903353], [-74.00304421619043, 40.738170342171365], [-74.00284404952085, 40.73812969790809], [-74.0026376103, 40.7381160111991], [-74.00243117107915, 40.73812969790809], [-74.00223100440957, 40.738170342171365], [-74.0020431922542, 40.73823670903353], [-74.00187344119038, 40.73832678197106], [-74.00172690901826, 40.73843782416334], [-74.00160804804375, 40.73856646164955], [-74.00152046979741, 40.73870878584475], [-74.00146683529995, 40.738860472300296], [-74.00144877420841, 40.7390169121]]]}}, {"type": "Feature", "properties": {"zone_id": "5492.05", "name": "Cleveland Pl & Spring St", "freq": 74895}, "geometry": {"type": "Polygon", "coordinates": [[[-73.99606017113345, 40.722103786686034], [-73.99607823222499, 40.72226022648574], [-73.99613186672245, 40.72241191294128], [-73.99621944496879, 40.722554237136485], [-73.9963383059433, 40.72268287462269], [-73.99648483811542, 40.72279391681497], [-73.99665458917924, 40.7228839897525], [-73.9968424013346, 40.72295035661467], [-73.99704256800419, 40.72299100087794], [-73.99724900722504, 40.723004687586936], [-73.99745544644588, 40.72299100087794], [-73.99765561311547, 40.72295035661467], [-73.99784342527083, 40.7228839897525], [-73.99801317633465, 40.72279391681497], [-73.99815970850678, 40.72268287462269], [-73.99827856948129, 40.722554237136485], [-73.99836614772762, 40.72241191294128], [-73.99841978222508, 40.72226022648574], [-73.99843784331662, 40.722103786686034], [-73.99841978222508, 40.72194734688633], [-73.99836614772762, 40.721795660430786], [-73.99827856948129, 40.72165333623558], [-73.99815970850678, 40.72152469874938], [-73.99801317633465, 40.7214136565571], [-73.99784342527083, 40.721323583619565], [-73.99765561311547, 40.7212572167574], [-73.99745544644588, 40.72121657249413], [-73.99724900722504, 40.72120288578513], [-73.99704256800419, 40.72121657249413], [-73.9968424013346, 40.7212572167574], [-73.99665458917924, 40.721323583619565], [-73.99648483811542, 40.7214136565571], [-73.9963383059433, 40.72152469874938], [-73.99621944496879, 40.72165333623558], [-73.99613186672245, 40.721795660430786], [-73.99607823222499, 40.72194734688633], [-73.99606017113345, 40.722103786686034]]]}}, {"type": "Feature", "properties": {"zone_id": "6098.10", "name": "Broadway & E 21 St", "freq": 73870}, "geometry": {"type": "Polygon", "coordinates": [[[-73.98839710307794, 40.73988841338602], [-73.98841516416948, 40.74004485318572], [-73.98846879866694, 40.74019653964127], [-73.98855637691328, 40.74033886383647], [-73.98867523788779, 40.74046750132268], [-73.98882177005991, 40.74057854351496], [-73.98899152112374, 40.74066861645249], [-73.9891793332791, 40.74073498331465], [-73.98937949994868, 40.740775627577925], [-73.98958593916953, 40.74078931428692], [-73.98979237839038, 40.740775627577925], [-73.98999254505996, 40.74073498331465], [-73.99018035721532, 40.74066861645249], [-73.99035010827915, 40.74057854351496], [-73.99049664045127, 40.74046750132268], [-73.99061550142578, 40.74033886383647], [-73.99070307967212, 40.74019653964127], [-73.99075671416958, 40.74004485318572], [-73.99077477526112, 40.73988841338602], [-73.99075671416958, 40.739731973586316], [-73.99070307967212, 40.73958028713077], [-73.99061550142578, 40.73943796293557], [-73.99049664045127, 40.73930932544936], [-73.99035010827915, 40.73919828325708], [-73.99018035721532, 40.73910821031955], [-73.98999254505996, 40.739041843457386], [-73.98979237839038, 40.739001199194114], [-73.98958593916953, 40.73898751248512], [-73.98937949994868, 40.739001199194114], [-73.9891793332791, 40.739041843457386], [-73.98899152112374, 40.73910821031955], [-73.98882177005991, 40.73919828325708], [-73.98867523788779, 40.73930932544936], [-73.98855637691328, 40.73943796293557], [-73.98846879866694, 40.73958028713077], [-73.98841516416948, 40.739731973586316], [-73.98839710307794, 40.73988841338602]]]}}, {"type": "Feature", "properties": {"zone_id": "6257.03", "name": "W 24 St & 7 Ave", "freq": 71699}, "geometry": {"type": "Polygon", "coordinates": [[[-73.99411001900461, 40.74487634301093], [-73.99412808009615, 40.74503278281063], [-73.99418171459361, 40.74518446926618], [-73.99426929283995, 40.74532679346138], [-73.99438815381446, 40.74545543094759], [-73.99453468598658, 40.74556647313987], [-73.9947044370504, 40.7456565460774], [-73.99489224920576, 40.74572291293956], [-73.99509241587535, 40.745763557202835], [-73.9952988550962, 40.74577724391183], [-73.99550529431704, 40.745763557202835], [-73.99570546098663, 40.74572291293956], [-73.99589327314199, 40.7456565460774], [-73.99606302420581, 40.74556647313987], [-73.99620955637793, 40.74545543094759], [-73.99632841735244, 40.74532679346138], [-73.99641599559878, 40.74518446926618], [-73.99646963009624, 40.74503278281063], [-73.99648769118778, 40.74487634301093], [-73.99646963009624, 40.74471990321123], [-73.99641599559878, 40.74456821675568], [-73.99632841735244, 40.74442589256048], [-73.99620955637793, 40.74429725507427], [-73.99606302420581, 40.74418621288199], [-73.99589327314199, 40.74409613994446], [-73.99570546098663, 40.744029773082296], [-73.99550529431704, 40.743989128819024], [-73.9952988550962, 40.74397544211003], [-73.99509241587535, 40.743989128819024], [-73.99489224920576, 40.744029773082296], [-73.9947044370504, 40.74409613994446], [-73.99453468598658, 40.74418621288199], [-73.99438815381446, 40.74429725507427], [-73.99426929283995, 40.74442589256048], [-73.99418171459361, 40.74456821675568], [-73.99412808009615, 40.74471990321123], [-73.99411001900461, 40.74487634301093]]]}}, {"type": "Feature", "properties": {"zone_id": "5980.10", "name": "E 17 St & Broadway", "freq": 71157}, "geometry": {"type": "Polygon", "coordinates": [[[-73.98894516390841, 40.737006], [-73.98896322499995, 40.737162439799704], [-73.98901685949741, 40.73731412625525], [-73.98910443774375, 40.73745645045045], [-73.98922329871826, 40.73758508793666], [-73.98936983089038, 40.73769613012894], [-73.9895395819542, 40.73778620306647], [-73.98972739410956, 40.737852569928634], [-73.98992756077915, 40.73789321419191], [-73.990134, 40.7379069009009], [-73.99034043922084, 40.73789321419191], [-73.99054060589043, 40.737852569928634], [-73.99072841804579, 40.73778620306647], [-73.99089816910961, 40.73769613012894], [-73.99104470128174, 40.73758508793666], [-73.99116356225625, 40.73745645045045], [-73.99125114050258, 40.73731412625525], [-73.99130477500005, 40.737162439799704], [-73.99132283609158, 40.737006], [-73.99130477500005, 40.7368495602003], [-73.99125114050258, 40.73669787374475], [-73.99116356225625, 40.73655554954955], [-73.99104470128174, 40.736426912063344], [-73.99089816910961, 40.73631586987106], [-73.99072841804579, 40.73622579693353], [-73.99054060589043, 40.73615943007137], [-73.99034043922084, 40.736118785808095], [-73.990134, 40.7361050990991], [-73.98992756077915, 40.736118785808095], [-73.98972739410956, 40.73615943007137], [-73.9895395819542, 40.73622579693353], [-73.98936983089038, 40.73631586987106], [-73.98922329871826, 40.736426912063344], [-73.98910443774375, 40.73655554954955], [-73.98901685949741, 40.73669787374475], [-73.98896322499995, 40.7368495602003], [-73.98894516390841, 40.737006]]]}}, {"type": "Feature", "properties": {"zone_id": "6072.11", "name": "8 Ave & W 16 St", "freq": 67505}, "geometry": {"type": "Polygon", "coordinates": [[[-74.00051316390841, 40.740983], [-74.00053122499995, 40.7411394397997], [-74.00058485949741, 40.74129112625525], [-74.00067243774375, 40.74143345045045], [-74.00079129871826, 40.74156208793666], [-74.00093783089038, 40.74167313012894], [-74.0011075819542, 40.74176320306647], [-74.00129539410956, 40.74182956992863], [-74.00149556077915, 40.741870214191906], [-74.001702, 40.7418839009009], [-74.00190843922084, 40.741870214191906], [-74.00210860589043, 40.74182956992863], [-74.00229641804579, 40.74176320306647], [-74.00246616910961, 40.74167313012894], [-74.00261270128173, 40.74156208793666], [-74.00273156225624, 40.74143345045045], [-74.00281914050258, 40.74129112625525], [-74.00287277500004, 40.7411394397997], [-74.00289083609158, 40.740983], [-74.00287277500004, 40.7408265602003], [-74.00281914050258, 40.74067487374475], [-74.00273156225624, 40.74053254954955], [-74.00261270128173, 40.74040391206334], [-74.00246616910961, 40.74029286987106], [-74.00229641804579, 40.74020279693353], [-74.00210860589043, 40.74013643007137], [-74.00190843922084, 40.740095785808094], [-74.001702, 40.7400820990991], [-74.00149556077915, 40.740095785808094], [-74.00129539410956, 40.74013643007137], [-74.0011075819542, 40.74020279693353], [-74.00093783089038, 40.74029286987106], [-74.00079129871826, 40.74040391206334], [-74.00067243774375, 40.74053254954955], [-74.00058485949741, 40.74067487374475], [-74.00053122499995, 40.7408265602003], [-74.00051316390841, 40.740983]]]}}, {"type": "Feature", "properties": {"zone_id": "6289.06", "name": "Broadway & W 29 St", "freq": 67468}, "geometry": {"type": "Polygon", "coordinates": [[[-73.98736839390841, 40.7462009], [-73.98738645499995, 40.7463573397997], [-73.98744008949741, 40.74650902625525], [-73.98752766774375, 40.74665135045045], [-73.98764652871826, 40.746779987936655], [-73.98779306089038, 40.746891030128936], [-73.9879628119542, 40.74698110306647], [-73.98815062410957, 40.74704746992863], [-73.98835079077915, 40.747088114191904], [-73.98855723, 40.7471018009009], [-73.98876366922084, 40.747088114191904], [-73.98896383589043, 40.74704746992863], [-73.98915164804579, 40.74698110306647], [-73.98932139910961, 40.746891030128936], [-73.98946793128174, 40.746779987936655], [-73.98958679225625, 40.74665135045045], [-73.98967437050258, 40.74650902625525], [-73.98972800500005, 40.7463573397997], [-73.98974606609158, 40.7462009], [-73.98972800500005, 40.746044460200295], [-73.98967437050258, 40.74589277374475], [-73.98958679225625, 40.74575044954955], [-73.98946793128174, 40.74562181206334], [-73.98932139910961, 40.74551076987106], [-73.98915164804579, 40.74542069693353], [-73.98896383589043, 40.745354330071365], [-73.98876366922084, 40.74531368580809], [-73.98855723, 40.745299999099096], [-73.98835079077915, 40.74531368580809], [-73.98815062410957, 40.745354330071365], [-73.9879628119542, 40.74542069693353], [-73.98779306089038, 40.74551076987106], [-73.98764652871826, 40.74562181206334], [-73.98752766774375, 40.74575044954955], [-73.98744008949741, 40.74589277374475], [-73.98738645499995, 40.746044460200295], [-73.98736839390841, 40.7462009]]]}}, {"type": "Feature", "properties": {"zone_id": "5763.03", "name": "Carmine St & 6 Ave", "freq": 67030}, "geometry": {"type": "Polygon", "coordinates": [[[-74.00096104390842, 40.73038599], [-74.00097910499996, 40.730542429799705], [-74.00103273949742, 40.73069411625525], [-74.00112031774376, 40.73083644045045], [-74.00123917871827, 40.73096507793666], [-74.00138571089039, 40.73107612012894], [-74.00155546195421, 40.73116619306647], [-74.00174327410957, 40.731232559928635], [-74.00194344077916, 40.73127320419191], [-74.00214988, 40.731286890900904], [-74.00235631922085, 40.73127320419191], [-74.00255648589044, 40.731232559928635], [-74.0027442980458, 40.73116619306647], [-74.00291404910962, 40.73107612012894], [-74.00306058128174, 40.73096507793666], [-74.00317944225625, 40.73083644045045], [-74.00326702050259, 40.73069411625525], [-74.00332065500005, 40.730542429799705], [-74.00333871609159, 40.73038599], [-74.00332065500005, 40.7302295502003], [-74.00326702050259, 40.730077863744754], [-74.00317944225625, 40.72993553954955], [-74.00306058128174, 40.729806902063345], [-74.00291404910962, 40.729695859871065], [-74.0027442980458, 40.72960578693353], [-74.00255648589044, 40.72953942007137], [-74.00235631922085, 40.729498775808096], [-74.00214988, 40.7294850890991], [-74.00194344077916, 40.729498775808096], [-74.00174327410957, 40.72953942007137], [-74.00155546195421, 40.72960578693353], [-74.00138571089039, 40.729695859871065], [-74.00123917871827, 40.729806902063345], [-74.00112031774376, 40.72993553954955], [-74.00103273949742, 40.730077863744754], [-74.00097910499996, 40.7302295502003], [-74.00096104390842, 40.73038599]]]}}, {"type": "Feature", "properties": {"zone_id": "5593.01", "name": "E 1 St & 1 Ave", "freq": 65194}, "geometry": {"type": "Polygon", "coordinates": [[[-73.9874610090317, 40.72335597960796], [-73.98747907012324, 40.72351241940766], [-73.9875327046207, 40.72366410586321], [-73.98762028286704, 40.72380643005841], [-73.98773914384155, 40.723935067544616], [-73.98788567601368, 40.724046109736896], [-73.9880554270775, 40.72413618267443], [-73.98824323923286, 40.72420254953659], [-73.98844340590244, 40.724243193799865], [-73.98864984512329, 40.72425688050886], [-73.98885628434414, 40.724243193799865], [-73.98905645101372, 40.72420254953659], [-73.98924426316908, 40.72413618267443], [-73.9894140142329, 40.724046109736896], [-73.98956054640503, 40.723935067544616], [-73.98967940737954, 40.72380643005841], [-73.98976698562588, 40.72366410586321], [-73.98982062012334, 40.72351241940766], [-73.98983868121488, 40.72335597960796], [-73.98982062012334, 40.723199539808256], [-73.98976698562588, 40.72304785335271], [-73.98967940737954, 40.72290552915751], [-73.98956054640503, 40.7227768916713], [-73.9894140142329, 40.72266584947902], [-73.98924426316908, 40.72257577654149], [-73.98905645101372, 40.722509409679326], [-73.98885628434414, 40.72246876541605], [-73.98864984512329, 40.72245507870706], [-73.98844340590244, 40.72246876541605], [-73.98824323923286, 40.722509409679326], [-73.9880554270775, 40.72257577654149], [-73.98788567601368, 40.72266584947902], [-73.98773914384155, 40.7227768916713], [-73.98762028286704, 40.72290552915751], [-73.9875327046207, 40.72304785335271], [-73.98747907012324, 40.723199539808256], [-73.9874610090317, 40.72335597960796]]]}}, {"type": "Feature", "properties": {"zone_id": "6039.06", "name": "Washington St & Gansevoort St", "freq": 64771}, "geometry": {"type": "Polygon", "coordinates": [[[-74.00693012957484, 40.73932293463802], [-74.00694819066638, 40.73947937443772], [-74.00700182516384, 40.73963106089327], [-74.00708940341018, 40.73977338508847], [-74.00720826438469, 40.739902022574675], [-74.00735479655681, 40.740013064766956], [-74.00752454762063, 40.74010313770449], [-74.007712359776, 40.74016950456665], [-74.00791252644558, 40.740210148829924], [-74.00811896566643, 40.74022383553892], [-74.00832540488727, 40.740210148829924], [-74.00852557155686, 40.74016950456665], [-74.00871338371222, 40.74010313770449], [-74.00888313477604, 40.740013064766956], [-74.00902966694817, 40.739902022574675], [-74.00914852792268, 40.73977338508847], [-74.00923610616901, 40.73963106089327], [-74.00928974066647, 40.73947937443772], [-74.00930780175801, 40.73932293463802], [-74.00928974066647, 40.739166494838315], [-74.00923610616901, 40.73901480838277], [-74.00914852792268, 40.73887248418757], [-74.00902966694817, 40.73874384670136], [-74.00888313477604, 40.73863280450908], [-74.00871338371222, 40.73854273157155], [-74.00852557155686, 40.738476364709385], [-74.00832540488727, 40.73843572044611], [-74.00811896566643, 40.738422033737116], [-74.00791252644558, 40.73843572044611], [-74.007712359776, 40.738476364709385], [-74.00752454762063, 40.73854273157155], [-74.00735479655681, 40.73863280450908], [-74.00720826438469, 40.73874384670136], [-74.00708940341018, 40.73887248418757], [-74.00700182516384, 40.73901480838277], [-74.00694819066638, 40.739166494838315], [-74.00693012957484, 40.73932293463802]]]}}, {"type": "Feature", "properties": {"zone_id": "5382.06", "name": "Grand St & Elizabeth St", "freq": 63931}, "geometry": {"type": "Polygon", "coordinates": [[[-73.99477116390841, 40.718822], [-73.99478922499995, 40.718978439799706], [-73.99484285949741, 40.71913012625525], [-73.99493043774375, 40.719272450450454], [-73.99504929871826, 40.71940108793666], [-73.99519583089038, 40.71951213012894], [-73.9953655819542, 40.71960220306647], [-73.99555339410956, 40.719668569928636], [-73.99575356077915, 40.71970921419191], [-73.99596, 40.719722900900905], [-73.99616643922084, 40.71970921419191], [-73.99636660589043, 40.719668569928636], [-73.99655441804579, 40.71960220306647], [-73.99672416910961, 40.71951213012894], [-73.99687070128174, 40.71940108793666], [-73.99698956225625, 40.719272450450454], [-73.99707714050258, 40.71913012625525], [-73.99713077500004, 40.718978439799706], [-73.99714883609158, 40.718822], [-73.99713077500004, 40.7186655602003], [-73.99707714050258, 40.718513873744755], [-73.99698956225625, 40.71837154954955], [-73.99687070128174, 40.718242912063346], [-73.99672416910961, 40.718131869871065], [-73.99655441804579, 40.718041796933534], [-73.99636660589043, 40.71797543007137], [-73.99616643922084, 40.7179347858081], [-73.99596, 40.7179210990991], [-73.99575356077915, 40.7179347858081], [-73.99555339410956, 40.71797543007137], [-73.9953655819542, 40.718041796933534], [-73.99519583089038, 40.718131869871065], [-73.99504929871826, 40.718242912063346], [-73.99493043774375, 40.71837154954955], [-73.99484285949741, 40.718513873744755], [-73.99478922499995, 40.7186655602003], [-73.99477116390841, 40.718822]]]}}, {"type": "Feature", "properties": {"zone_id": "6257.06", "name": "W 27 St & 7 Ave", "freq": 63638}, "geometry": {"type": "Polygon", "coordinates": [[[-73.99273116390842, 40.74665], [-73.99274922499995, 40.746806439799705], [-73.99280285949742, 40.74695812625525], [-73.99289043774375, 40.74710045045045], [-73.99300929871826, 40.74722908793666], [-73.99315583089039, 40.74734013012894], [-73.99332558195421, 40.74743020306647], [-73.99351339410957, 40.747496569928636], [-73.99371356077916, 40.74753721419191], [-73.99392, 40.747550900900904], [-73.99412643922085, 40.74753721419191], [-73.99432660589044, 40.747496569928636], [-73.9945144180458, 40.74743020306647], [-73.99468416910962, 40.74734013012894], [-73.99483070128174, 40.74722908793666], [-73.99494956225625, 40.74710045045045], [-73.99503714050259, 40.74695812625525], [-73.99509077500005, 40.746806439799705], [-73.99510883609159, 40.74665], [-73.99509077500005, 40.7464935602003], [-73.99503714050259, 40.746341873744754], [-73.99494956225625, 40.74619954954955], [-73.99483070128174, 40.746070912063345], [-73.99468416910962, 40.745959869871065], [-73.9945144180458, 40.74586979693353], [-73.99432660589044, 40.74580343007137], [-73.99412643922085, 40.7457627858081], [-73.99392, 40.7457490990991], [-73.99371356077916, 40.7457627858081], [-73.99351339410957, 40.74580343007137], [-73.99332558195421, 40.74586979693353], [-73.99315583089039, 40.745959869871065], [-73.99300929871826, 40.746070912063345], [-73.99289043774375, 40.74619954954955], [-73.99280285949742, 40.746341873744754], [-73.99274922499995, 40.7464935602003], [-73.99273116390842, 40.74665]]]}}, {"type": "Feature", "properties": {"zone_id": "5303.08", "name": "Canal St & Rutgers St", "freq": 63538}, "geometry": {"type": "Polygon", "coordinates": [[[-73.98871141390842, 40.71427487], [-73.98872947499996, 40.7144313097997], [-73.98878310949742, 40.714582996255245], [-73.98887068774376, 40.71472532045045], [-73.98898954871827, 40.714853957936654], [-73.98913608089039, 40.714965000128934], [-73.98930583195421, 40.715055073066466], [-73.98949364410957, 40.71512143992863], [-73.98969381077916, 40.7151620841919], [-73.98990025, 40.7151757709009], [-73.99010668922085, 40.7151620841919], [-73.99030685589044, 40.71512143992863], [-73.9904946680458, 40.715055073066466], [-73.99066441910962, 40.714965000128934], [-73.99081095128174, 40.714853957936654], [-73.99092981225625, 40.71472532045045], [-73.99101739050259, 40.714582996255245], [-73.99107102500005, 40.7144313097997], [-73.99108908609159, 40.71427487], [-73.99107102500005, 40.714118430200294], [-73.99101739050259, 40.71396674374475], [-73.99092981225625, 40.713824419549546], [-73.99081095128174, 40.71369578206334], [-73.99066441910962, 40.71358473987106], [-73.9904946680458, 40.71349466693353], [-73.99030685589044, 40.713428300071364], [-73.99010668922085, 40.71338765580809], [-73.98990025, 40.713373969099095], [-73.98969381077916, 40.71338765580809], [-73.98949364410957, 40.713428300071364], [-73.98930583195421, 40.71349466693353], [-73.98913608089039, 40.71358473987106], [-73.98898954871827, 40.71369578206334], [-73.98887068774376, 40.713824419549546], [-73.98878310949742, 40.71396674374475], [-73.98872947499996, 40.714118430200294], [-73.98871141390842, 40.71427487]]]}}, {"type": "Feature", "properties": {"zone_id": "5297.02", "name": "Vesey Pl & River Terrace", "freq": 62956}, "geometry": {"type": "Polygon", "coordinates": [[[-74.01539470390841, 40.7153379], [-74.01541276499995, 40.715494339799704], [-74.01546639949741, 40.71564602625525], [-74.01555397774375, 40.71578835045045], [-74.01567283871826, 40.71591698793666], [-74.01581937089038, 40.71602803012894], [-74.0159891219542, 40.71611810306647], [-74.01617693410957, 40.716184469928635], [-74.01637710077915, 40.71622511419191], [-74.01658354, 40.7162388009009], [-74.01678997922085, 40.71622511419191], [-74.01699014589043, 40.716184469928635], [-74.01717795804579, 40.71611810306647], [-74.01734770910961, 40.71602803012894], [-74.01749424128174, 40.71591698793666], [-74.01761310225625, 40.71578835045045], [-74.01770068050259, 40.71564602625525], [-74.01775431500005, 40.715494339799704], [-74.01777237609159, 40.7153379], [-74.01775431500005, 40.7151814602003], [-74.01770068050259, 40.71502977374475], [-74.01761310225625, 40.71488744954955], [-74.01749424128174, 40.714758812063344], [-74.01734770910961, 40.714647769871064], [-74.01717795804579, 40.71455769693353], [-74.01699014589043, 40.71449133007137], [-74.01678997922085, 40.714450685808096], [-74.01658354, 40.7144369990991], [-74.01637710077915, 40.714450685808096], [-74.01617693410957, 40.71449133007137], [-74.0159891219542, 40.71455769693353], [-74.01581937089038, 40.714647769871064], [-74.01567283871826, 40.714758812063344], [-74.01555397774375, 40.71488744954955], [-74.01546639949741, 40.71502977374475], [-74.01541276499995, 40.7151814602003], [-74.01539470390841, 40.7153379]]]}}, {"type": "Feature", "properties": {"zone_id": "5989.02", "name": "W 15 St & 6 Ave", "freq": 62460}, "geometry": {"type": "Polygon", "coordinates": [[[-73.9952407562794, 40.738046142482766], [-73.99525881737094, 40.73820258228247], [-73.9953124518684, 40.738354268738014], [-73.99540003011474, 40.73849659293322], [-73.99551889108925, 40.73862523041942], [-73.99566542326137, 40.7387362726117], [-73.9958351743252, 40.738826345549235], [-73.99602298648055, 40.7388927124114], [-73.99622315315014, 40.73893335667467], [-73.99642959237099, 40.73894704338367], [-73.99663603159183, 40.73893335667467], [-73.99683619826142, 40.7388927124114], [-73.99702401041678, 40.738826345549235], [-73.9971937614806, 40.7387362726117], [-73.99734029365273, 40.73862523041942], [-73.99745915462724, 40.73849659293322], [-73.99754673287357, 40.738354268738014], [-73.99760036737104, 40.73820258228247], [-73.99761842846257, 40.738046142482766], [-73.99760036737104, 40.73788970268306], [-73.99754673287357, 40.73773801622752], [-73.99745915462724, 40.737595692032315], [-73.99734029365273, 40.73746705454611], [-73.9971937614806, 40.73735601235383], [-73.99702401041678, 40.7372659394163], [-73.99683619826142, 40.73719957255413], [-73.99663603159183, 40.73715892829086], [-73.99642959237099, 40.737145241581864], [-73.99622315315014, 40.73715892829086], [-73.99602298648055, 40.73719957255413], [-73.9958351743252, 40.7372659394163], [-73.99566542326137, 40.73735601235383], [-73.99551889108925, 40.73746705454611], [-73.99540003011474, 40.737595692032315], [-73.9953124518684, 40.73773801622752], [-73.99525881737094, 40.73788970268306], [-73.9952407562794, 40.738046142482766]]]}}, {"type": "Feature", "properties": {"zone_id": "5880.02", "name": "W 4 St & 7 Ave S", "freq": 62345}, "geometry": {"type": "Polygon", "coordinates": [[[-74.00174993390841, 40.73401143], [-74.00176799499995, 40.734167869799705], [-74.00182162949741, 40.73431955625525], [-74.00190920774375, 40.73446188045045], [-74.00202806871826, 40.73459051793666], [-74.00217460089038, 40.73470156012894], [-74.0023443519542, 40.73479163306647], [-74.00253216410957, 40.734857999928636], [-74.00273233077915, 40.73489864419191], [-74.00293877, 40.734912330900904], [-74.00314520922085, 40.73489864419191], [-74.00334537589043, 40.734857999928636], [-74.0035331880458, 40.73479163306647], [-74.00370293910962, 40.73470156012894], [-74.00384947128174, 40.73459051793666], [-74.00396833225625, 40.73446188045045], [-74.00405591050259, 40.73431955625525], [-74.00410954500005, 40.734167869799705], [-74.00412760609159, 40.73401143], [-74.00410954500005, 40.7338549902003], [-74.00405591050259, 40.733703303744754], [-74.00396833225625, 40.73356097954955], [-74.00384947128174, 40.733432342063345], [-74.00370293910962, 40.733321299871065], [-74.0035331880458, 40.73323122693353], [-74.00334537589043, 40.73316486007137], [-74.00314520922085, 40.7331242158081], [-74.00293877, 40.7331105290991], [-74.00273233077915, 40.7331242158081], [-74.00253216410957, 40.73316486007137], [-74.0023443519542, 40.73323122693353], [-74.00217460089038, 40.733321299871065], [-74.00202806871826, 40.733432342063345], [-74.00190920774375, 40.73356097954955], [-74.00182162949741, 40.733703303744754], [-74.00176799499995, 40.7338549902003], [-74.00174993390841, 40.73401143]]]}}, {"type": "Feature", "properties": {"zone_id": "5847.01", "name": "Christopher St & Greenwich St", "freq": 61298}, "geometry": {"type": "Polygon", "coordinates": [[[-74.00592500390842, 40.73291553], [-74.00594306499995, 40.7330719697997], [-74.00599669949742, 40.73322365625525], [-74.00608427774375, 40.73336598045045], [-74.00620313871826, 40.73349461793666], [-74.00634967089039, 40.73360566012894], [-74.00651942195421, 40.73369573306647], [-74.00670723410957, 40.73376209992863], [-74.00690740077916, 40.733802744191905], [-74.00711384, 40.7338164309009], [-74.00732027922085, 40.733802744191905], [-74.00752044589044, 40.73376209992863], [-74.0077082580458, 40.73369573306647], [-74.00787800910962, 40.73360566012894], [-74.00802454128174, 40.73349461793666], [-74.00814340225625, 40.73336598045045], [-74.00823098050259, 40.73322365625525], [-74.00828461500005, 40.7330719697997], [-74.00830267609159, 40.73291553], [-74.00828461500005, 40.7327590902003], [-74.00823098050259, 40.73260740374475], [-74.00814340225625, 40.73246507954955], [-74.00802454128174, 40.73233644206334], [-74.00787800910962, 40.73222539987106], [-74.0077082580458, 40.73213532693353], [-74.00752044589044, 40.732068960071366], [-74.00732027922085, 40.732028315808094], [-74.00711384, 40.7320146290991], [-74.00690740077916, 40.732028315808094], [-74.00670723410957, 40.732068960071366], [-74.00651942195421, 40.73213532693353], [-74.00634967089039, 40.73222539987106], [-74.00620313871826, 40.73233644206334], [-74.00608427774375, 40.73246507954955], [-74.00599669949742, 40.73260740374475], [-74.00594306499995, 40.7327590902003], [-74.00592500390842, 40.73291553]]]}}, {"type": "Feature", "properties": {"zone_id": "6306.06", "name": "W 22 St & 10 Ave", "freq": 60898}, "geometry": {"type": "Polygon", "coordinates": [[[-74.00333003390841, 40.74691959], [-74.00334809499995, 40.7470760297997], [-74.00340172949741, 40.747227716255246], [-74.00348930774375, 40.74737004045045], [-74.00360816871826, 40.747498677936655], [-74.00375470089038, 40.747609720128935], [-74.0039244519542, 40.74769979306647], [-74.00411226410957, 40.74776615992863], [-74.00431243077915, 40.7478068041919], [-74.00451887, 40.7478204909009], [-74.00472530922085, 40.7478068041919], [-74.00492547589043, 40.74776615992863], [-74.00511328804579, 40.74769979306647], [-74.00528303910961, 40.747609720128935], [-74.00542957128174, 40.747498677936655], [-74.00554843225625, 40.74737004045045], [-74.00563601050258, 40.747227716255246], [-74.00568964500005, 40.7470760297997], [-74.00570770609158, 40.74691959], [-74.00568964500005, 40.746763150200294], [-74.00563601050258, 40.74661146374475], [-74.00554843225625, 40.746469139549546], [-74.00542957128174, 40.74634050206334], [-74.00528303910961, 40.74622945987106], [-74.00511328804579, 40.74613938693353], [-74.00492547589043, 40.746073020071364], [-74.00472530922085, 40.74603237580809], [-74.00451887, 40.746018689099095], [-74.00431243077915, 40.74603237580809], [-74.00411226410957, 40.746073020071364], [-74.0039244519542, 40.74613938693353], [-74.00375470089038, 40.74622945987106], [-74.00360816871826, 40.74634050206334], [-74.00348930774375, 40.746469139549546], [-74.00340172949741, 40.74661146374475], [-74.00334809499995, 40.746763150200294], [-74.00333003390841, 40.74691959]]]}}, {"type": "Feature", "properties": {"zone_id": "5561.06", "name": "Lafayette St & Jersey St", "freq": 60737}, "geometry": {"type": "Polygon", "coordinates": [[[-73.99446409390842, 40.72456089], [-73.99448215499996, 40.7247173297997], [-73.99453578949742, 40.72486901625525], [-73.99462336774376, 40.72501134045045], [-73.99474222871827, 40.72513997793666], [-73.99488876089039, 40.72525102012894], [-73.99505851195421, 40.72534109306647], [-73.99524632410957, 40.72540745992863], [-73.99544649077916, 40.725448104191905], [-73.99565293, 40.7254617909009], [-73.99585936922085, 40.725448104191905], [-73.99605953589044, 40.72540745992863], [-73.9962473480458, 40.72534109306647], [-73.99641709910962, 40.72525102012894], [-73.99656363128175, 40.72513997793666], [-73.99668249225626, 40.72501134045045], [-73.99677007050259, 40.72486901625525], [-73.99682370500005, 40.7247173297997], [-73.99684176609159, 40.72456089], [-73.99682370500005, 40.724404450200296], [-73.99677007050259, 40.72425276374475], [-73.99668249225626, 40.72411043954955], [-73.99656363128175, 40.72398180206334], [-73.99641709910962, 40.72387075987106], [-73.9962473480458, 40.72378068693353], [-73.99605953589044, 40.723714320071366], [-73.99585936922085, 40.723673675808094], [-73.99565293, 40.7236599890991], [-73.99544649077916, 40.723673675808094], [-73.99524632410957, 40.723714320071366], [-73.99505851195421, 40.72378068693353], [-73.99488876089039, 40.72387075987106], [-73.99474222871827, 40.72398180206334], [-73.99462336774376, 40.72411043954955], [-73.99453578949742, 40.72425276374475], [-73.99448215499996, 40.724404450200296], [-73.99446409390842, 40.72456089]]]}}]}